{
    "links": {
        "self": "http://www.neowsapp.com/rest/v1/neo/3625070?api_key=iIulBulltgU6a56xZRHN4H3l9WmuAYTsLGpBGhQ2"
    },
    "id": "3625070",
    "neo_reference_id": "3625070",
    "name": "(2013 BQ27)",
    "designation": "2013 BQ27",
    "nasa_jpl_url": "http://ssd.jpl.nasa.gov/sbdb.cgi?sstr=3625070",
    "absolute_magnitude_h": 24.1,
    "estimated_diameter": {
        "kilometers": {
            "estimated_diameter_min": 0.040230458,
            "estimated_diameter_max": 0.0899580388
        },
        "meters": {
            "estimated_diameter_min": 40.2304579834,
            "estimated_diameter_max": 89.9580388169
        },
        "miles": {
            "estimated_diameter_min": 0.0249980399,
            "estimated_diameter_max": 0.0558973165
        },
        "feet": {
            "estimated_diameter_min": 131.9896957704,
            "estimated_diameter_max": 295.1379320721
        }
    },
    "is_potentially_hazardous_asteroid": false,
    "close_approach_data": [
        {
            "close_approach_date": "2012-08-02",
            "close_approach_date_full": "2012-Aug-02 02:35",
            "epoch_date_close_approach": 1343874900000,
            "relative_velocity": {
                "kilometers_per_second": "12.2104359475",
                "kilometers_per_hour": "43957.5694110184",
                "miles_per_hour": "27313.5241709742"
            },
            "miss_distance": {
                "astronomical": "0.2280062315",
                "lunar": "88.6944240535",
                "kilometers": "34109246.579126905",
                "miles": "21194503.022105089"
            },
            "orbiting_body": "Earth"
        },
        {
            "close_approach_date": "2013-01-15",
            "close_approach_date_full": "2013-Jan-15 15:39",
            "epoch_date_close_approach": 1358264340000,
            "relative_velocity": {
                "kilometers_per_second": "13.4291927664",
                "kilometers_per_hour": "48345.0939591901",
                "miles_per_hour": "30039.7612992534"
            },
            "miss_distance": {
                "astronomical": "0.1122735137",
                "lunar": "43.6743968293",
                "kilometers": "16795878.506935819",
                "miles": "10436474.9584355422"
            },
            "orbiting_body": "Earth"
        }
    ],
    "orbital_data": {
        "orbit_id": "5",
        "orbit_determination_date": "2019-07-11 05:59:45",
        "first_observation_date": "2013-01-18",
        "last_observation_date": "2013-01-21",
        "data_arc_in_days": 3,
        "observations_used": 28,
        "orbit_uncertainty": "8",
        "minimum_orbit_intersection": ".107019",
        "jupiter_tisserand_invariant": "5.081",
        "epoch_osculation": "2456311.5",
        "eccentricity": ".2411408582754888",
        "semi_major_axis": "1.233859990435305",
        "inclination": "23.87222309739878",
        "ascending_node_longitude": "122.1968285253914",
        "orbital_period": "500.6073822542971",
        "perihelion_distance": ".9363259333499491",
        "perihelion_argument": "281.8918248034854",
        "aphelion_distance": "1.531394047520661",
        "perihelion_time": "2456241.631313848915",
        "mean_anomaly": "50.24441889195631",
        "mean_motion": ".7191264307347515",
        "equinox": "J2000",
        "orbit_class": {
            "orbit_class_type": "APO",
            "orbit_class_description": "Near-Earth asteroid orbits which cross the Earth’s orbit similar to that of 1862 Apollo",
            "orbit_class_range": "a (semi-major axis) > 1.0 AU; q (perihelion) < 1.017 AU"
        }
    },
    "is_sentry_object": false
}